[
    {
        "Altitude(m)": 610405.2784263786,
        "Argument of Periapsis(deg)": 0.0,
        "Eccentricity": 0.0,
        "Inclination(deg)": 60.0,
        "Latitude(deg)": 52.11114851936642,
        "Longitude(deg)": -112.52250748968027,
        "Mean Anomaly(deg)": 114.5455,
        "RAAN(deg)": 215.0,
        "Satellite Name": "Test1 953",
        "Satellite Number": 953,
        "Semi-Major Axis(m)": 6980739.136638005,
        "Time(s)": 0
    },
    {
        "Altitude(m)": 610321.8509848032,
        "Argument of Periapsis(deg)": 0.00010418945913296404,
        "Eccentricity": 0.0,
        "Inclination(deg)": 60.0,
        "Latitude(deg)": 51.74586271483972,
        "Longitude(deg)": -111.75361672724189,
        "Mean Anomaly(deg)": 115.16560614546188,
        "RAAN(deg)": 214.99957995086024,
        "Satellite Name": "Test1 953",
        "Satellite Number": 953,
        "Semi-Major Axis(m)": 6980739.136638005,
        "Time(s)": 10
    }
]